CTC2_L_00103001-01
1 63715U 25626XO  26070.40843750  .00000000  00000+0  00000-0 0  9998
2 63715  75.0000   0.0000 0000000   0.0000   0.0000 14.60983543    10
CTC2_L_00103001-02
1 63716U 25124ZB  26070.40843750  .00000000  00000+0  00000-0 0  9992
2 63716  75.0000   0.0000 0000000   0.0000  90.0000 14.60983543    10
CTC2_L_00103001-03
1 63717U 23778CT  26070.40843750  .00000000  00000+0  00000-0 0  9996
2 63717  75.0000   0.0000 0000000   0.0000 180.0000 14.60983543    11
CTC2_L_00103001-04
1 63718U 25718WH  26070.40843750  .00000000  00000+0  00000-0 0  9993
2 63718  75.0000   0.0000 0000000   0.0000 270.0000 14.60983543    12
CTC2_L_00103002-01
1 63719U 23539RO  26070.40843750  .00000000  00000+0  00000-0 0  9993
2 63719  75.0000  12.0000 0000000   0.0000  12.0000 14.60983543    10
CTC2_L_00103002-02
1 63720U 23825BC  26070.40843750  .00000000  00000+0  00000-0 0  9993
2 63720  75.0000  12.0000 0000000   0.0000 102.0000 14.60983543    12
CTC2_L_00103002-03
1 63721U 25560NM  26070.40843750  .00000000  00000+0  00000-0 0  9992
2 63721  75.0000  12.0000 0000000   0.0000 192.0000 14.60983543    12
CTC2_L_00103002-04
1 63722U 23327MP  26070.40843750  .00000000  00000+0  00000-0 0  9992
2 63722  75.0000  12.0000 0000000   0.0000 282.0000 14.60983543    13
CTC2_L_00103003-01
1 63723U 24981DI  26070.40843750  .00000000  00000+0  00000-0 0  9990
2 63723  75.0000  24.0000 0000000   0.0000  24.0000 14.60983543    11
CTC2_L_00103003-02
1 63724U 24581BM  26070.40843750  .00000000  00000+0  00000-0 0  9997
2 63724  75.0000  24.0000 0000000   0.0000 114.0000 14.60983543    12
CTC2_L_00103003-03
1 63725U 22697VD  26070.40843750  .00000000  00000+0  00000-0 0  9994
2 63725  75.0000  24.0000 0000000   0.0000 204.0000 14.60983543    13
CTC2_L_00103003-04
1 63726U 23966YP  26070.40843750  .00000000  00000+0  00000-0 0  9995
2 63726  75.0000  24.0000 0000000   0.0000 294.0000 14.60983543    13
CTC2_L_00103004-01
1 63727U 26055JD  26070.40843750  .00000000  00000+0  00000-0 0  9998
2 63727  75.0000  36.0000 0000000   0.0000  36.0000 14.60983543    11
CTC2_L_00103004-02
1 63728U 22388FJ  26070.40843750  .00000000  00000+0  00000-0 0  9994
2 63728  75.0000  36.0000 0000000   0.0000 126.0000 14.60983543    12
CTC2_L_00103004-03
1 63729U 22732FD  26070.40843750  .00000000  00000+0  00000-0 0  9998
2 63729  75.0000  36.0000 0000000   0.0000 216.0000 14.60983543    13
CTC2_L_00103004-04
1 63730U 25955IH  26070.40843750  .00000000  00000+0  00000-0 0  9990
2 63730  75.0000  36.0000 0000000   0.0000 306.0000 14.60983543    15
CTC2_L_00103005-01
1 63731U 25767EQ  26070.40843750  .00000000  00000+0  00000-0 0  9992
2 63731  75.0000  48.0000 0000000   0.0000  48.0000 14.60983543    12
CTC2_L_00103005-02
1 63732U 22318WZ  26070.40843750  .00000000  00000+0  00000-0 0  9992
2 63732  75.0000  48.0000 0000000   0.0000 138.0000 14.60983543    13
CTC2_L_00103005-03
1 63733U 24791BE  26070.40843750  .00000000  00000+0  00000-0 0  9990
2 63733  75.0000  48.0000 0000000   0.0000 228.0000 14.60983543    14
CTC2_L_00103005-04
1 63734U 26580MM  26070.40843750  .00000000  00000+0  00000-0 0  9999
2 63734  75.0000  48.0000 0000000   0.0000 318.0000 14.60983543    15
CTC2_L_00103006-01
1 63735U 26586IF  26070.40843750  .00000000  00000+0  00000-0 0  9996
2 63735  75.0000  60.0000 0000000   0.0000  60.0000 14.60983543    14
CTC2_L_00103006-02
1 63736U 24962HO  26070.40843750  .00000000  00000+0  00000-0 0  9993
2 63736  75.0000  60.0000 0000000   0.0000 150.0000 14.60983543    15
CTC2_L_00103006-03
1 63737U 26280SP  26070.40843750  .00000000  00000+0  00000-0 0  9999
2 63737  75.0000  60.0000 0000000   0.0000 240.0000 14.60983543    16
CTC2_L_00103006-04
1 63738U 23667LM  26070.40843750  .00000000  00000+0  00000-0 0  9996
2 63738  75.0000  60.0000 0000000   0.0000 330.0000 14.60983543    17
CTC2_L_00103007-01
1 63739U 23060CL  26070.40843750  .00000000  00000+0  00000-0 0  9994
2 63739  75.0000  72.0000 0000000   0.0000  72.0000 14.60983543    14
CTC2_L_00103007-02
1 63740U 26284TI  26070.40843750  .00000000  00000+0  00000-0 0  9997
2 63740  75.0000  72.0000 0000000   0.0000 162.0000 14.60983543    16
CTC2_L_00103007-03
1 63741U 22980VN  26070.40843750  .00000000  00000+0  00000-0 0  9997
2 63741  75.0000  72.0000 0000000   0.0000 252.0000 14.60983543    17
CTC2_L_00103007-04
1 63742U 22657HR  26070.40843750  .00000000  00000+0  00000-0 0  9999
2 63742  75.0000  72.0000 0000000   0.0000 342.0000 14.60983543    18
CTC2_L_00103008-01
1 63743U 23636ZE  26070.40843750  .00000000  00000+0  00000-0 0  9998
2 63743  75.0000  84.0000 0000000   0.0000  84.0000 14.60983543    15
CTC2_L_00103008-02
1 63744U 25427AE  26070.40843750  .00000000  00000+0  00000-0 0  9999
2 63744  75.0000  84.0000 0000000   0.0000 174.0000 14.60983543    16
CTC2_L_00103008-03
1 63745U 23300ZX  26070.40843750  .00000000  00000+0  00000-0 0  9998
2 63745  75.0000  84.0000 0000000   0.0000 264.0000 14.60983543    17
CTC2_L_00103008-04
1 63746U 23944AE  26070.40843750  .00000000  00000+0  00000-0 0  9993
2 63746  75.0000  84.0000 0000000   0.0000 354.0000 14.60983543    18
CTC2_L_00103009-01
1 63747U 24602ZW  26070.40843750  .00000000  00000+0  00000-0 0  9996
2 63747  75.0000  96.0000 0000000   0.0000  96.0000 14.60983543    15
CTC2_L_00103009-02
1 63748U 23617UR  26070.40843750  .00000000  00000+0  00000-0 0  9992
2 63748  75.0000  96.0000 0000000   0.0000 186.0000 14.60983543    16
CTC2_L_00103009-03
1 63749U 23683VT  26070.40843750  .00000000  00000+0  00000-0 0  9996
2 63749  75.0000  96.0000 0000000   0.0000 276.0000 14.60983543    17
CTC2_L_00103009-04
1 63750U 23015VB  26070.40843750  .00000000  00000+0  00000-0 0  9997
2 63750  75.0000  96.0000 0000000   0.0000   6.0000 14.60983543    10
CTC2_L_00103010-01
1 63751U 23460J   26070.40843750  .00000000  00000+0  00000-0 0  9992
2 63751  75.0000 108.0000 0000000   0.0000 108.0000 14.60983543    18
CTC2_L_00103010-02
1 63752U 26734XK  26070.40843750  .00000000  00000+0  00000-0 0  9990
2 63752  75.0000 108.0000 0000000   0.0000 198.0000 14.60983543    18
CTC2_L_00103010-03
1 63753U 26827DH  26070.40843750  .00000000  00000+0  00000-0 0  9994
2 63753  75.0000 108.0000 0000000   0.0000 288.0000 14.60983543    19
CTC2_L_00103010-04
1 63754U 23368LH  26070.40843750  .00000000  00000+0  00000-0 0  9992
2 63754  75.0000 108.0000 0000000   0.0000  18.0000 14.60983543    11
CTC2_L_00103011-01
1 63755U 26362US  26070.40843750  .00000000  00000+0  00000-0 0  9990
2 63755  75.0000 120.0000 0000000   0.0000 120.0000 14.60983543    10
CTC2_L_00103011-02
1 63756U 22496BA  26070.40843750  .00000000  00000+0  00000-0 0  9995
2 63756  75.0000 120.0000 0000000   0.0000 210.0000 14.60983543    11
CTC2_L_00103011-03
1 63757U 23616CC  26070.40843750  .00000000  00000+0  00000-0 0  9991
2 63757  75.0000 120.0000 0000000   0.0000 300.0000 14.60983543    12
CTC2_L_00103011-04
1 63758U 26811RA  26070.40843750  .00000000  00000+0  00000-0 0  9992
2 63758  75.0000 120.0000 0000000   0.0000  30.0000 14.60983543    13
CTC2_L_00103012-01
1 63759U 25652YX  26070.40843750  .00000000  00000+0  00000-0 0  9995
2 63759  75.0000 132.0000 0000000   0.0000 132.0000 14.60983543    10
CTC2_L_00103012-02
1 63760U 22419HE  26070.40843750  .00000000  00000+0  00000-0 0  9995
2 63760  75.0000 132.0000 0000000   0.0000 222.0000 14.60983543    12
CTC2_L_00103012-03
1 63761U 22817XB  26070.40843750  .00000000  00000+0  00000-0 0  9998
2 63761  75.0000 132.0000 0000000   0.0000 312.0000 14.60983543    13
CTC2_L_00103012-04
1 63762U 25117EA  26070.40843750  .00000000  00000+0  00000-0 0  9995
2 63762  75.0000 132.0000 0000000   0.0000  42.0000 14.60983543    14
CTC2_L_00103013-01
1 63763U 22083IS  26070.40843750  .00000000  00000+0  00000-0 0  9995
2 63763  75.0000 144.0000 0000000   0.0000 144.0000 14.60983543    11
CTC2_L_00103013-02
1 63764U 24970EE  26070.40843750  .00000000  00000+0  00000-0 0  9993
2 63764  75.0000 144.0000 0000000   0.0000 234.0000 14.60983543    12
CTC2_L_00103013-03
1 63765U 25306FJ  26070.40843750  .00000000  00000+0  00000-0 0  9998
2 63765  75.0000 144.0000 0000000   0.0000 324.0000 14.60983543    13
CTC2_L_00103013-04
1 63766U 26968HP  26070.40843750  .00000000  00000+0  00000-0 0  9994
2 63766  75.0000 144.0000 0000000   0.0000  54.0000 14.60983543    14
CTC2_L_00103014-01
1 63767U 22700DS  26070.40843750  .00000000  00000+0  00000-0 0  9995
2 63767  75.0000 156.0000 0000000   0.0000 156.0000 14.60983543    11
CTC2_L_00103014-02
1 63768U 23314VM  26070.40843750  .00000000  00000+0  00000-0 0  9998
2 63768  75.0000 156.0000 0000000   0.0000 246.0000 14.60983543    12
CTC2_L_00103014-03
1 63769U 24640XY  26070.40843750  .00000000  00000+0  00000-0 0  9992
2 63769  75.0000 156.0000 0000000   0.0000 336.0000 14.60983543    13
CTC2_L_00103014-04
1 63770U 23594WO  26070.40843750  .00000000  00000+0  00000-0 0  9991
2 63770  75.0000 156.0000 0000000   0.0000  66.0000 14.60983543    15
CTC2_L_00103015-01
1 63771U 25956K   26070.40843750  .00000000  00000+0  00000-0 0  9996
2 63771  75.0000 168.0000 0000000   0.0000 168.0000 14.60983543    12
CTC2_L_00103015-02
1 63772U 23639PE  26070.40843750  .00000000  00000+0  00000-0 0  9993
2 63772  75.0000 168.0000 0000000   0.0000 258.0000 14.60983543    13
CTC2_L_00103015-03
1 63773U 26583LL  26070.40843750  .00000000  00000+0  00000-0 0  9995
2 63773  75.0000 168.0000 0000000   0.0000 348.0000 14.60983543    14
CTC2_L_00103015-04
1 63774U 26767SL  26070.40843750  .00000000  00000+0  00000-0 0  9990
2 63774  75.0000 168.0000 0000000   0.0000  78.0000 14.60983543    15
CTC2_L_00103016-01
1 63775U 23284IQ  26070.40843750  .00000000  00000+0  00000-0 0  9992
2 63775  75.0000 180.0000 0000000   0.0000 180.0000 14.60983543    14
CTC2_L_00103016-02
1 63776U 26048NH  26070.40843750  .00000000  00000+0  00000-0 0  9994
2 63776  75.0000 180.0000 0000000   0.0000 270.0000 14.60983543    15
